COMMENT,ORIGINATOR,NORAD_CAT_ID,OBJECT_NAME,OBJECT_TYPE,CLASSIFICATION_TYPE,INTLDES,EPOCH,EPOCH_MICROSECONDS,MEAN_MOTION,ECCENTRICITY,INCLINATION,RA_OF_ASC_NODE,ARG_OF_PERICENTER,MEAN_ANOMALY,EPHEMERIS_TYPE,ELEMENT_SET_NO,REV_AT_EPOCH,BSTAR,MEAN_MOTION_DOT,MEAN_MOTION_DDOT,FILE,TLE_LINE0,TLE_LINE1,TLE_LINE2,OBJECT_ID,OBJECT_NUMBER,SEMIMAJOR_AXIS,PERIOD,APOGEE,PERIGEE,DECAYED
"GENERATED VIA SPACETRACK.ORG API","18 SPCS","48884","SPACEBEE-101","PAYLOAD","U","21059F","2023-12-17 22:23:51","712224","15.52130005","0.0004388","97.6079","135.5296","327.264","32.8339","0","999","13764","0.0016671","0.0010184","0","4138919","0 SPACEBEE-101","1 48884U 21059F   23351.93323741  .00101840  00000-0  16671-2 0  9992","2 48884  97.6079 135.5296 0004388 327.2640  32.8339 15.52130005137641","2021-059F","48884","6788.645","92.776","413.489","407.531","0"
"GENERATED VIA SPACETRACK.ORG API","18 SPCS","48884","SPACEBEE-101","PAYLOAD","U","21059F","2023-12-18 09:13:41","603520","15.52227264","0.0004245","97.6078","136.0062","322.909","37.1868","0","999","13771","0.0014632","0.00089542","0","4139416","0 SPACEBEE-101","1 48884U 21059F   23352.38450930  .00089542  00000-0  14632-2 0  9992","2 48884  97.6078 136.0062 0004245 322.9090  37.1868 15.52227264137717","2021-059F","48884","6788.362","92.770","413.108","407.345","0"
"GENERATED VIA SPACETRACK.ORG API","18 SPCS","48884","SPACEBEE-101","PAYLOAD","U","21059F","2023-12-18 21:36:18","635616","15.5233776","0.000442","97.6075","136.553","322.8382","37.2563","0","999","13779","0.0015479","0.00095176","0","4139685","0 SPACEBEE-101","1 48884U 21059F   23352.90021569  .00095176  00000-0  15479-2 0  9992","2 48884  97.6075 136.5530 0004420 322.8382  37.2563 15.52337760137791","2021-059F","48884","6788.039","92.763","412.905","406.904","0"
"GENERATED VIA SPACETRACK.ORG API","18 SPCS","48884","SPACEBEE-101","PAYLOAD","U","21059F","2023-12-18 23:09:08","33184","15.52351554","0.0004427","97.6076","136.6213","322.3996","37.6946","0","999","13780","0.0015426","0.00094894","0","4139768","0 SPACEBEE-101","1 48884U 21059F   23352.96467631  .00094894  00000-0  15426-2 0  9990","2 48884  97.6076 136.6213 0004427 322.3996  37.6946 15.52351554137802","2021-059F","48884","6787.999","92.762","412.869","406.859","0"
"GENERATED VIA SPACETRACK.ORG API","18 SPCS","48884","SPACEBEE-101","PAYLOAD","U","21059F","2023-12-19 08:26:03","327360","15.52444541","0.0004339","97.6074","137.0305","321.2838","38.8102","0","999","13786","0.0017431","0.00107771","0","4140047","0 SPACEBEE-101","1 48884U 21059F   23353.35142740  .00107771  00000-0  17431-2 0  9992","2 48884  97.6074 137.0305 0004339 321.2838  38.8102 15.52444541137864","2021-059F","48884","6787.728","92.757","412.538","406.648","0"
"GENERATED VIA SPACETRACK.ORG API","18 SPCS","48884","SPACEBEE-101","PAYLOAD","U","21059F","2023-12-19 08:26:03","327360","15.52444541","0.0004339","97.6074","137.0305","321.2838","38.8102","0","999","13786","0.0017431","0.00107771","0","4140211","0 SPACEBEE-101","1 48884U 21059F   23353.35142740  .00107771  00000-0  17431-2 0  9992","2 48884  97.6074 137.0305 0004339 321.2838  38.8102 15.52444541137864","2021-059F","48884","6787.728","92.757","412.538","406.648","0"
"GENERATED VIA SPACETRACK.ORG API","18 SPCS","48884","SPACEBEE-101","PAYLOAD","U","21059F","2023-12-19 22:21:23","153472","15.52551125","0.0004377","97.6068","137.6451","320.8178","39.2756","0","999","13795","0.0014392","0.00089096","0","4140538","0 SPACEBEE-101","1 48884U 21059F   23353.93151798  .00089096  00000-0  14392-2 0  9991","2 48884  97.6068 137.6451 0004377 320.8178  39.2756 15.52551125137956","2021-059F","48884","6787.418","92.751","412.253","406.312","0"
"GENERATED VIA SPACETRACK.ORG API","18 SPCS","48884","SPACEBEE-101","PAYLOAD","U","21059F","2023-12-20 09:11:02","488416","15.52658051","0.0004333","97.6068","138.1224","318.1413","41.9507","0","999","13802","0.0017875","0.00111418","0","4140814","0 SPACEBEE-101","1 48884U 21059F   23354.38266769  .00111418  00000-0  17875-2 0  9999","2 48884  97.6068 138.1224 0004333 318.1413  41.9507 15.52658051138023","2021-059F","48884","6787.106","92.744","411.912","406.030","0"
"GENERATED VIA SPACETRACK.ORG API","18 SPCS","48884","SPACEBEE-101","PAYLOAD","U","21059F","2023-12-20 09:11:02","488416","15.52658051","0.0004333","97.6068","138.1224","318.1413","41.9507","0","999","13802","0.0017875","0.00111418","0","4141011","0 SPACEBEE-101","1 48884U 21059F   23354.38266769  .00111418  00000-0  17875-2 0  9999","2 48884  97.6068 138.1224 0004333 318.1413  41.9507 15.52658051138023","2021-059F","48884","6787.106","92.744","411.912","406.030","0"
"GENERATED VIA SPACETRACK.ORG API","18 SPCS","48884","SPACEBEE-101","PAYLOAD","U","21059F","2023-12-20 21:33:27","188640","15.5277488","0.0004408","97.6066","138.6693","317.7014","42.3898","0","999","13810","0.0017942","0.0011232","0","4141291","0 SPACEBEE-101","1 48884U 21059F   23354.89823135  .00112320  00000-0  17942-2 0  9999","2 48884  97.6066 138.6693 0004408 317.7014  42.3898 15.52774880138107","2021-059F","48884","6786.766","92.737","411.622","405.639","0"
"GENERATED VIA SPACETRACK.ORG API","18 SPCS","48884","SPACEBEE-101","PAYLOAD","U","21059F","2023-12-21 08:23:00","955968","15.52881703","0.0004385","97.6065","139.1469","316.8951","43.1957","0","999","13817","0.0017422","0.00109441","0","4141803","0 SPACEBEE-101","1 48884U 21059F   23355.34931662  .00109441  00000-0  17422-2 0  9998","2 48884  97.6065 139.1469 0004385 316.8951  43.1957 15.52881703138172","2021-059F","48884","6786.454","92.731","411.295","405.343","0"
"GENERATED VIA SPACETRACK.ORG API","18 SPCS","48884","SPACEBEE-101","PAYLOAD","U","21059F","2023-12-21 22:18:06","449184","15.53004747","0.0004498","97.6059","139.7616","316.8365","43.2535","0","999","13826","0.0016792","0.00105902","0","4141951","0 SPACEBEE-101","1 48884U 21059F   23355.92924131  .00105902  00000-0  16792-2 0  9992","2 48884  97.6059 139.7616 0004498 316.8365  43.2535 15.53004747138268","2021-059F","48884","6786.096","92.723","411.013","404.908","0"
"GENERATED VIA SPACETRACK.ORG API","18 SPCS","48884","SPACEBEE-101","PAYLOAD","U","21059F","2023-12-21 22:18:06","449184","15.53004747","0.0004498","97.6059","139.7616","316.8365","43.2535","0","999","13826","0.0016792","0.00105902","0","4142000","0 SPACEBEE-101","1 48884U 21059F   23355.92924131  .00105902  00000-0  16792-2 0  9992","2 48884  97.6059 139.7616 0004498 316.8365  43.2535 15.53004747138268","2021-059F","48884","6786.096","92.723","411.013","404.908","0"
"GENERATED VIA SPACETRACK.ORG API","18 SPCS","48884","SPACEBEE-101","PAYLOAD","U","21059F","2023-12-22 09:07:34","369824","15.53111982","0.0004589","97.6057","140.2388","315.6319","44.4565","0","999","13833","0.00167","0.00105728","0","4142519","0 SPACEBEE-101","1 48884U 21059F   23356.38025891  .00105728  00000-0  16700-2 0  9993","2 48884  97.6057 140.2388 0004589 315.6319  44.4565 15.53111982138330","2021-059F","48884","6785.783","92.717","410.762","404.534","0"
"GENERATED VIA SPACETRACK.ORG API","18 SPCS","48884","SPACEBEE-101","PAYLOAD","U","21059F","2023-12-22 09:07:34","369824","15.53111982","0.0004589","97.6057","140.2388","315.6319","44.4565","0","999","13833","0.00167","0.00105728","0","4142584","0 SPACEBEE-101","1 48884U 21059F   23356.38025891  .00105728  00000-0  16700-2 0  9993","2 48884  97.6057 140.2388 0004589 315.6319  44.4565 15.53111982138330","2021-059F","48884","6785.783","92.717","410.762","404.534","0"
"GENERATED VIA SPACETRACK.ORG API","18 SPCS","48884","SPACEBEE-101","PAYLOAD","U","21059F","2023-12-22 23:02:32","177760","15.53247171","0.0004693","97.6058","140.8543","315.1319","44.9553","0","999","13842","0.0017719","0.00112835","0","4142831","0 SPACEBEE-101","1 48884U 21059F   23356.96009465  .00112835  00000-0  17719-2 0  9994","2 48884  97.6058 140.8543 0004693 315.1319  44.9553 15.53247171138423","2021-059F","48884","6785.390","92.709","410.439","404.070","0"
"GENERATED VIA SPACETRACK.ORG API","18 SPCS","48884","SPACEBEE-101","PAYLOAD","U","21059F","2023-12-23 08:19:08","397408","15.53329162","0.0004449","97.6059","141.2645","312.3154","47.7721","0","999","13848","0.0016053","0.0010238","0","4143387","0 SPACEBEE-101","1 48884U 21059F   23357.34662497  .00102380  00000-0  16053-2 0  9991","2 48884  97.6059 141.2645 0004449 312.3154  47.7721 15.53329162138482","2021-059F","48884","6785.151","92.704","410.035","403.997","0"
"GENERATED VIA SPACETRACK.ORG API","18 SPCS","48884","SPACEBEE-101","PAYLOAD","U","21059F","2023-12-23 08:19:08","397408","15.53329162","0.0004449","97.6059","141.2645","312.3154","47.7721","0","999","13848","0.0016053","0.0010238","0","4143434","0 SPACEBEE-101","1 48884U 21059F   23357.34662497  .00102380  00000-0  16053-2 0  9991","2 48884  97.6059 141.2645 0004449 312.3154  47.7721 15.53329162138482","2021-059F","48884","6785.151","92.704","410.035","403.997","0"
"GENERATED VIA SPACETRACK.ORG API","18 SPCS","48884","SPACEBEE-101","PAYLOAD","U","21059F","2023-12-23 22:13:59","236320","15.53464747","0.000453","97.6052","141.8797","313.3232","46.7642","0","999","13857","0.0018816","0.00120889","0","4143662","0 SPACEBEE-101","1 48884U 21059F   23357.92638005  .00120889  00000-0  18816-2 0  9996","2 48884  97.6052 141.8797 0004530 313.3232  46.7642 15.53464747138578","2021-059F","48884","6784.756","92.696","409.695","403.548","0"
"GENERATED VIA SPACETRACK.ORG API","18 SPCS","48884","SPACEBEE-101","PAYLOAD","U","21059F","2023-12-23 22:13:59","236320","15.53464747","0.000453","97.6052","141.8797","313.3232","46.7642","0","999","13857","0.0018816","0.00120889","0","4143683","0 SPACEBEE-101","1 48884U 21059F   23357.92638005  .00120889  00000-0  18816-2 0  9996","2 48884  97.6052 141.8797 0004530 313.3232  46.7642 15.53464747138578","2021-059F","48884","6784.756","92.696","409.695","403.548","0"
